norad_id,name,regime,epoch,line1,line2,inclination,eccentricity,mean_motion,raan,arg_pericenter,mean_anomaly
44333,AT&T T-16,GEO,21028.52367287,1 44333U 19034A   21028.52367287 -.00000108  00000-0  00000+0 0  8557\,2 44333   0.0145 329.1653 0001466 222.7468  23.7234  1.00269500  5926,0.0145,0.0001466,1.002695,329.1653,222.7468,23.7234
44333,AT&T T-16,GEO,21028.61268656,1 44333U 19034A   21028.61268656 -.00000109  00000-0  00000+0 0  8569\,2 44333   0.0114 355.7507 0001426 197.7169  54.3007  1.00270375  5920,0.0114,0.0001426,1.00270375,355.7507,197.7169,54.3007
44333,AT&T T-16,GEO,21029.19114541,1 44333U 19034A   21029.19114541 -.00000110  00000-0  00000+0 0  8579\,2 44333   0.0091 352.5592 0000997 205.4275 258.6023  1.00272221  5930,0.0091,9.97e-05,1.00272221,352.5592,205.4275,258.6023
44333,AT&T T-16,GEO,21029.51720360,1 44333U 19034A   21029.51720360 -.00000111  00000-0  00000+0 0  8589\,2 44333   0.0152 323.1715 0001407 237.6608  13.4649  1.00272912  5931,0.0152,0.0001407,1.00272912,323.1715,237.6608,13.4649
44333,AT&T T-16,GEO,21029.60688367,1 44333U 19034A   21029.60688367 -.00000110  00000-0  00000-0 0    19\,2 44333   0.0155 322.0810 0001618 229.6486  54.9359  1.00267432  5947,0.0155,0.0001618,1.00267432,322.081,229.6486,54.9359
44333,AT&T T-16,GEO,21029.64785554,1 44333U 19034A   21029.64785554 -.00000110  00000-0  00000-0 0    19\,2 44333   0.0152 322.4895 0001515 233.3963  65.5723  1.00269949  5947,0.0152,0.0001515,1.00269949,322.4895,233.3963,65.5723
44333,AT&T T-16,GEO,21030.43671245,1 44333U 19034A   21030.43671245 -.00000112  00000-0  00000+0 0  8603\,2 44333   0.0318 267.7027 0001649 286.2998 352.2292  1.00268547  5942,0.0318,0.0001649,1.00268547,267.7027,286.2998,352.2292
44333,AT&T T-16,GEO,21030.61814197,1 44333U 19034A   21030.61814197 -.00000112  00000-0  00000-0 0    16\,2 44333   0.0367 270.4482 0001460 285.8276  55.4500  1.00271936  5958,0.0367,0.000146,1.00271936,270.4482,285.8276,55.45
44333,AT&T T-16,GEO,21031.67817566,1 44333U 19034A   21031.67817566 -.00000114  00000-0  00000-0 0    18\,2 44333   0.0388 271.1017 0001472 281.0380  82.2487  1.00273301  5961,0.0388,0.0001472,1.00273301,271.1017,281.038,82.2487
44333,AT&T T-16,GEO,21032.16646691,1 44333U 19034A   21032.16646691 -.00000114  00000-0  00000+0 0  8626\,2 44333   0.0418 286.5967 0001236 270.2258 253.8305  1.00269487  5966,0.0418,0.0001236,1.00269487,286.5967,270.2258,253.8305
44333,AT&T T-16,GEO,21032.53332814,1 44333U 19034A   21032.53332814 -.00000114  00000-0  00000-0 0    12\,2 44333   0.0445 280.3989 0001161 277.1203  25.5609  1.00268799  5972,0.0445,0.0001161,1.00268799,280.3989,277.1203,25.5609
44333,AT&T T-16,GEO,21033.09329421,1 44333U 19034A   21033.09329421 -.00000115  00000-0  00000+0 0  8641\,2 44333   0.0320 294.9947 0001143 259.4278 230.7904  1.00268526  5970,0.032,0.0001143,1.00268526,294.9947,259.4278,230.7904
44333,AT&T T-16,GEO,21033.58590981,1 44333U 19034A   21033.58590981 -.00000115  00000-0  00000-0 0    10\,2 44333   0.0262 302.2336 0001114 250.1904  50.6109  1.00268542  5987,0.0262,0.0001114,1.00268542,302.2336,250.1904,50.6109
44333,AT&T T-16,GEO,21033.84702208,1 44333U 19034A   21033.84702208 -.00000115  00000-0  00000-0 0    16\,2 44333   0.0255 304.7578 0001114 246.2077 146.3240  1.00268463  5982,0.0255,0.0001114,1.00268463,304.7578,246.2077,146.324
44333,AT&T T-16,GEO,21034.16299524,1 44333U 19034A   21034.16299524 -.00000116  00000-0  00000+0 0  8652\,2 44333   0.0182 314.7396 0001107 234.9359 261.6718  1.00268454  5980,0.0182,0.0001107,1.00268454,314.7396,234.9359,261.6718
44333,AT&T T-16,GEO,21034.52884988,1 44333U 19034A   21034.52884988 -.00000116  00000-0  00000-0 0    19\,2 44333   0.0180 317.0859 0001050 228.7267  37.5989  1.00268409  5995,0.018,0.000105,1.00268409,317.0859,228.7267,37.5989
44333,AT&T T-16,GEO,21034.67244032,1 44333U 19034A   21034.67244032 -.00000116  00000-0  00000-0 0    15\,2 44333   0.0156 320.6102 0001044 224.2775  90.3561  1.00268376  5993,0.0156,0.0001044,1.00268376,320.6102,224.2775,90.3561
44333,AT&T T-16,GEO,21035.52243889,1 44333U 19034A   21035.52243889 -.00000118  00000-0  00000+0 0  8669\,2 44333   0.0165 318.9448 0001324 230.8920  32.2500  1.00274670  5994,0.0165,0.0001324,1.0027467,318.9448,230.892,32.25
44333,AT&T T-16,GEO,21035.61967297,1 44333U 19034A   21035.61967297 -.00000118  00000-0  00000-0 0    17\,2 44333   0.0174 316.1182 0001467 227.7565  73.3099  1.00271564  6008,0.0174,0.0001467,1.00271564,316.1182,227.7565,73.3099
44333,AT&T T-16,GEO,21035.66735372,1 44333U 19034A   21035.66735372 -.00000118  00000-0  00000-0 0    19\,2 44333   0.0166 317.3844 0001468 226.4352  90.5771  1.00271606  6003,0.0166,0.0001468,1.00271606,317.3844,226.4352,90.5771
44333,AT&T T-16,GEO,21036.16507753,1 44333U 19034A   21036.16507753 -.00000118  00000-0  00000+0 0  8685\,2 44333   0.0268 296.1100 0001164 239.9869 277.9722  1.00268261  6000,0.0268,0.0001164,1.00268261,296.11,239.9869,277.9722
44333,AT&T T-16,GEO,21036.44602734,1 44333U 19034A   21036.44602734 -.00000120  00000-0  00000+0 0  8695\,2 44333   0.0361 279.4439 0001588 280.4294 355.6241  1.00274820  6004,0.0361,0.0001588,1.0027482,279.4439,280.4294,355.6241
44333,AT&T T-16,GEO,21036.62436683,1 44333U 19034A   21036.62436683 -.00000120  00000-0  00000+0 0  8705\,2 44333   0.0363 266.4014 0001722 279.1956  74.2724  1.00269538  6001,0.0363,0.0001722,1.00269538,266.4014,279.1956,74.2724
44333,AT&T T-16,GEO,21037.11438304,1 44333U 19034A   21037.11438304 -.00000122  00000-0  00000+0 0  8715\,2 44333   0.0336 279.0277 0001538 254.1040 263.6317  1.00274537  6012,0.0336,0.0001538,1.00274537,279.0277,254.104,263.6317
44333,AT&T T-16,GEO,21037.55897462,1 44333U 19034A   21037.55897462 -.00000122  00000-0  00000-0 0    13\,2 44333   0.0128 307.1680 0001565 242.4910  47.5983  1.00274192  6024,0.0128,0.0001565,1.00274192,307.168,242.491,47.5983
44333,AT&T T-16,GEO,21037.64362678,1 44333U 19034A   21037.64362678 -.00000123  00000-0  00000-0 0    10\,2 44333   0.0126 306.4348 0001629 240.3381  81.0415  1.00272655  6020,0.0126,0.0001629,1.00272655,306.4348,240.3381,81.0415
44333,AT&T T-16,GEO,21037.90250458,1 44333U 19034A   21037.90250458 -.00000124  00000-0  00000+0 0  8738\,2 44333   0.0354 269.2274 0001632 276.9738 175.0647  1.00272504  6026,0.0354,0.0001632,1.00272504,269.2274,276.9738,175.0647
44333,AT&T T-16,GEO,21038.63071898,1 44333U 19034A   21038.63071898 -.00000126  00000-0  00000+0 0  8741\,2 44333   0.0124 301.6745 0001877 246.8160  75.6522  1.00270949  6029,0.0124,0.0001877,1.00270949,301.6745,246.816,75.6522
44333,AT&T T-16,GEO,21039.48041566,1 44333U 19034A   21039.48041566 -.00000128  00000-0  00000+0 0  8757\,2 44333   0.0115 295.9334 0001505 251.8791  23.0526  1.00268491  6033,0.0115,0.0001505,1.00268491,295.9334,251.8791,23.0526
44333,AT&T T-16,GEO,21039.56654431,1 44333U 19034A   21039.56654431 -.00000127  00000-0  00000-0 0    18\,2 44333   0.0108 293.6842 0001502 253.2073  55.0634  1.00268191  6043,0.0108,0.0001502,1.00268191,293.6842,253.2073,55.0634
44333,AT&T T-16,GEO,21039.65169977,1 44333U 19034A   21039.65169977 -.00000128  00000-0  00000-0 0    15\,2 44333   0.0107 295.3656 0001493 252.0142  85.3141  1.00268425  6046,0.0107,0.0001493,1.00268425,295.3656,252.0142,85.3141
44333,AT&T T-16,GEO,21040.48149618,1 44333U 19034A   21040.48149618 -.00000130  00000-0  00000+0 0  8760\,2 44333   0.0078 295.6917 0001476 251.1958  25.3420  1.00268667  6044,0.0078,0.0001476,1.00268667,295.6917,251.1958,25.342
44333,AT&T T-16,GEO,21040.61410454,1 44333U 19034A   21040.61410454 -.00000130  00000-0  00000-0 0    15\,2 44333   0.0074 290.4334 0001467 255.8482  73.8160  1.00268649  6059,0.0074,0.0001467,1.00268649,290.4334,255.8482,73.816
44333,AT&T T-16,GEO,21040.91721448,1 44333U 19034A   21040.91721448 -.00000130  00000-0  00000-0 0    16\,2 44333   0.0063 290.6982 0001452 255.4670 183.3472  1.00268670  6054,0.0063,0.0001452,1.0026867,290.6982,255.467,183.3472
44333,AT&T T-16,GEO,21041.53420911,1 44333U 19034A   21041.53420911 -.00000131  00000-0  00000+0 0  8777\,2 44333   0.0041 286.2020 0001448 259.3072  46.7224  1.00268706  6055,0.0041,0.0001448,1.00268706,286.202,259.3072,46.7224
44333,AT&T T-16,GEO,21041.62546667,1 44333U 19034A   21041.62546667 -.00000131  00000-0  00000-0 0    14\,2 44333   0.0029 272.5288 0001446 272.8587  79.7859  1.00268711  6061,0.0029,0.0001446,1.00268711,272.5288,272.8587,79.7859
44333,AT&T T-16,GEO,21042.22995230,1 44333U 19034A   21042.22995230 -.00000131  00000-0  00000+0 0  8786\,2 44333   0.0335 250.4520 0001798 284.6882 308.2468  1.00266913  6062,0.0335,0.0001798,1.00266913,250.452,284.6882,308.2468
44333,AT&T T-16,GEO,21042.53017833,1 44333U 19034A   21042.53017833 -.00000132  00000-0  00000+0 0  8796\,2 44333   0.0465 271.7362 0001711 275.1379  44.8937  1.00273881  6063,0.0465,0.0001711,1.00273881,271.7362,275.1379,44.8937
44333,AT&T T-16,GEO,21042.62076997,1 44333U 19034A   21042.62076997 -.00000132  00000-0  00000+0 0  8804\,2 44333   0.0268 241.5174 0001774 303.7043  79.2475  1.00272595  6065,0.0268,0.0001774,1.00272595,241.5174,303.7043,79.2475
44333,AT&T T-16,GEO,21042.85517549,1 44333U 19034A   21042.85517549 -.00000131  00000-0  00000-0 0    17\,2 44333   0.0306 247.2357 0001706 298.0832 163.7692  1.00273381  6076,0.0306,0.0001706,1.00273381,247.2357,298.0832,163.7692
44333,AT&T T-16,GEO,21043.14235632,1 44333U 19034A   21043.14235632 -.00000132  00000-0  00000+0 0  8816\,2 44333   0.0460 273.1952 0001612 271.3801 268.1851  1.00274399  6079,0.046,0.0001612,1.00274399,273.1952,271.3801,268.1851
44333,AT&T T-16,GEO,21043.62100091,1 44333U 19034A   21043.62100091 -.00000130  00000-0  00000+0 0  8828\,2 44333   0.0428 286.1370 0001939 257.1428  82.2639  1.00269054  6071,0.0428,0.0001939,1.00269054,286.137,257.1428,82.2639
44333,AT&T T-16,GEO,21044.22310635,1 44333U 19034A   21044.22310635 -.00000131  00000-0  00000+0 0  8834\,2 44333   0.0360 292.1056 0001864 275.7078 275.0950  1.00286994  6089,0.036,0.0001864,1.00286994,292.1056,275.7078,275.095
